STARLINK-6276           
1 57355U 23099AD  26068.43924385  .00001472  00000+0  12402-3 0  9993
2 57355  43.0015 237.7576 0001498 265.3402  94.7269 15.02525983146223
SEDNA-1                 
1 60580U 24149DS  26068.76583836  .00008721  00000+0  60834-3 0  9998
2 60580  97.6673 149.7617 0008344 330.8481  29.2278 15.05597965 85421
